CARTOSAT-2F             
1 43111U 18004A   20210.15836425  .00000339  00000-0  19213-4 0  9997
2 43111  97.3826 268.9294 0002900 276.6957 161.0323 15.19289445140896
PSLV DEB                
1 43112U 18004B   20210.17701271  .00002218  00000-0  89034-4 0  9996
2 43112  97.4502 282.1297 0008277 241.5850 118.4554 15.26020076141306
LEO VANTAGE 1           
1 43113U 18004C   20209.76560549 -.00000051  00000-0 -88087-5 0  9994
2 43113  99.3719 265.0454 0004824 330.0078  30.0792 13.69842322127682
ICEYE-X1                
1 43114U 18004D   20210.17365281  .00000736  00000-0  33870-4 0  9995
2 43114  97.4429 279.9921 0008297 256.4866 103.5447 15.23439239141193
CARBONITE 2             
1 43115U 18004E   20210.19072099  .00000318  00000-0  16689-4 0  9995
2 43115  97.4414 279.4470 0008469 260.4291  99.5988 15.22657771141174
INS-1C                  
1 43116U 18004F   20210.13844092  .00000840  00000-0  37683-4 0  9997
2 43116  97.4504 281.2592 0007746 261.0959  98.9401 15.23942224141237
CORVUS BC3              
1 43118U 18004H   20210.15158930  .00000539  00000-0  25640-4 0  9995
2 43118  97.4420 280.0892 0008612 269.6910  90.3340 15.23414956141199
FLOCK 3P'-3             
1 43119U 18004J   20209.89124382  .00000605  00000-0  28404-4 0  9994
2 43119  97.4490 280.3011 0008404 270.7198  89.3075 15.23438787141150
FLOCK 3P'-2             
1 43120U 18004K   20209.87795804  .00000503  00000-0  24247-4 0  9995
2 43120  97.4493 280.1873 0008371 271.1614  88.8664 15.23246747141140
FLOCK 3P'-1             
1 43121U 18004L   20210.18703711  .00001553  00000-0  65571-4 0  9999
2 43121  97.4491 281.2679 0008031 266.4183  93.6136 15.24774463141179
FLOCK 3P'-4             
1 43122U 18004M   20209.87663775  .00000461  00000-0  22441-4 0  9995
2 43122  97.4502 280.2454 0008214 273.3557  86.6740 15.23247717141144
LEMUR-2-MCCAFFERTY      
1 43123U 18004N   20209.76252310  .00001295  00000-0  54025-4 0  9992
2 43123  97.4475 281.6954 0007767 267.2673  92.7676 15.25468865141234
LEMUR-2-PETERWEBSTER    
1 43124U 18004P   20210.15018740  .00001252  00000-0  52474-4 0  9994
2 43124  97.4477 281.9637 0007811 264.2239  95.8108 15.25390675141296
LEMUR-2-BROWNCOW        
1 43125U 18004Q   20210.13906888  .00001577  00000-0  64477-4 0  9998
2 43125  97.4488 282.2953 0007614 264.4640  95.5730 15.25836169141317
LEMUR-2-DAVEWILSON      
1 43126U 18004R   20210.19142220  .00001595  00000-0  65421-4 0  9997
2 43126  97.4487 282.2362 0007609 264.1124  95.9247 15.25712144141312
DEMOSAT 2               
1 43127U 18004S   20209.87151059  .00000606  00000-0  28245-4 0  9996
2 43127  97.4431 280.2284 0007985 272.5985  87.4338 15.23676699141171
MICROSAT-TD             
1 43128U 18004T   20210.12747508  .00036443  00000-0  16208-3 0  9990
2 43128  96.7468 261.9420 0005213  23.4733 336.6775 15.84238845145822
ARKYD 6A                
1 43130U 18004V   20210.18141913  .00000779  00000-0  35123-4 0  9998
2 43130  97.4446 280.8443 0007981 271.0816  88.9506 15.23975833141239
MICROMAS-2A             
1 43131U 18004W   20210.18928304  .00001372  00000-0  57198-4 0  9992
2 43131  97.4471 282.0048 0007421 266.8277  93.2112 15.25396576141308
PICSAT                  
1 43132U 18004X   20209.74816971  .00000935  00000-0  40954-4 0  9995
2 43132  97.4454 280.8405 0007805 272.1257  87.9087 15.24495215141194
CNUSAIL-1               
1 43133U 18004Y   20209.86713870  .00000667  00000-0  30599-4 0  9999
2 43133  97.4439 280.4506 0007854 273.0643  86.9695 15.23878946141187
OBJECT Z                
1 43134U 18004Z   20210.19199579  .00000831  00000-0  36985-4 0  9990
2 43134  97.4448 281.1479 0007656 271.2322  88.8038 15.24273007141246
OBJECT AA               
1 43135U 18004AA  20209.76779494  .00001059  00000-0  45595-4 0  9992
2 43135  97.4458 281.1300 0007573 272.3709  87.6661 15.24800340141212
OBJECT AB               
1 43136U 18004AB  20209.86462445  .00001197  00000-0  50718-4 0  9995
2 43136  97.4472 281.5264 0007366 271.3758  88.6636 15.25111249141245
FOX-1D (AO-92)          
1 43137U 18004AC  20209.86018664  .00000729  00000-0  32882-4 0  9998
2 43137  97.4438 280.7452 0007446 274.5027  85.5360 15.24184790141207
STEP CUBE LAB           
1 43138U 18004AD  20209.86003709  .00001216  00000-0  51307-4 0  9998
2 43138  97.4468 281.6677 0007123 272.4662  87.5761 15.25216756141255
SPACEBEE-4              
1 43139U 18004AE  20210.18811357  .00002113  00000-0  83168-4 0  9999
2 43139  97.4503 283.2855 0006718 266.1481  93.8990 15.26736933141361
SPACEBEE-3              
1 43140U 18004AF  20209.84606903  .00002589  00000-0  98502-4 0  9996
2 43140  97.4521 283.6952 0006376 264.8547  95.1964 15.27672450141363
SPACEBEE-2              
1 43141U 18004AG  20209.88290026  .00002831  00000-0  10640-3 0  9992
2 43141  97.4533 284.0171 0006355 263.5901  96.4614 15.27991022141389
SPACEBEE-1              
1 43142U 18004AH  20209.84105246  .00002805  00000-0  10430-3 0  9996
2 43142  97.4538 284.2602 0006306 262.9952  97.0570 15.28362160141385
CICERO 7                
1 43143U 18004AJ  20210.18953551  .00001198  00000-0  50288-4 0  9996
2 43143  97.4448 282.1780 0005669 278.8850  81.1746 15.25424801141325
TYVAK-61C               
1 43144U 18004AK  20209.68807658  .00001256  00000-0  51787-4 0  9996
2 43144  97.4483 282.4316 0006164 286.3268  73.7292 15.25952007141283
